objectId,latitude,longitude,postalCode,place
AXasDTOsUQ,46.0511,14.5051,1000,Ljubljana - dostava
njcfAjK2U2,46.0511,14.5051,1001,Ljubljana - poštni predali
xlzp3Wu1J9,46.0964,14.4697,1210,Ljubljana Šentvid
kVZi3HNMLc,46.168,14.5217,1211,Ljubljana-Šmartno
P5qlLptXzu,46.1333,14.4333,1215,Medvode
RKnCtuBkPO,46.1642,14.4325,1216,Smlednik
WCUlwc8DYT,46.1899,14.4949,1217,Vodice
NAiqYukLwv,46.2048,14.5384,1218,Komenda
9TjbYIPp2l,46.2194,14.7611,1219,Laze v Tuhinju
DZYT1aKK4n,46.2153,14.8911,1221,Motnik
U7WNrzMNcs,46.1883,14.8831,1222,Trojane
SnSin1B7p7,46.1769,14.8072,1223,Blagovica
ShOzIVsiob,46.1667,14.7,1225,Lukovica
JHIeh7t5D9,46.1377,14.5937,1230,Domžale
UN3Kr9W3W2,46.1527,14.5952,1231,Ljubljana Èrnuèe
t2C6nbM1qM,46.1519,14.6286,1233,Dob
12wTv2n8SX,46.1669,14.575,1234,Mengeš
1MUZm5Iu5k,46.1736,14.6122,1235,Radomlje
cUAjuUa4JQ,46.1333,14.5667,1236,Trzin
OzLGZCYiWv,46.2259,14.6121,1241,Kamnik
8zrP6RZlTp,46.2619,14.6022,1242,Stahovica
sbjt7hrZrL,46.1369,14.745,1251,Moravèe
31txwij769,46.12,14.8392,1252,Vaèe
vMTZBXBXkq,46.0667,14.5833,1260,Ljubljana Polje
EpYk62Blji,46.0333,14.5833,1261,Ljubljana-Dobrunje
jieJ1DAai7,46.0886,14.6008,1262,Dol pri Ljubljani
2iQASP0ywj,46.0586,14.8225,1270,Litija
ii08OZztFj,46.0667,14.95,1272,Polšnik
eDGPFePULd,46.0353,15.0189,1273,Dole pri Litiji
5NfWqjjBIK,46.0167,15,1274,Gabrovka
K2TtnARsBP,46.0444,14.8442,1275,Šmartno pri Litiji
QYNiY55Cmw,45.9717,14.9104,1276,Primskovo
hHnxy9TaE4,46.102,14.7858,1281,Kresnice
sEdEgifBiv,46.0898,14.8904,1282,Sava
EtuWyYVv2w,45.9556,14.6589,1290,Grosuplje
gT0r7SBkCW,45.9833,14.5767,1291,Škofljica
rmWYTLn6pe,45.9603,14.5289,1292,Ig
9ImWzjTo4Z,45.9762,14.6118,1293,Šmarje-Sap
tHtMXfthkv,45.9539,14.7453,1294,Višnja Gora
jhZx6FzswN,45.9383,14.8044,1295,Ivanèna Gorica
VjHh5Gee29,45.95,14.8434,1296,Šentvid pri Stièni
t1OXB0X2u5,45.8813,14.7781,1301,Krka
uNaFGX9ztO,45.8614,14.8342,1303,Zagradec
8vjXfbuAUB,45.7386,14.7275,1310,Ribnica
mdUWlFl1Ja,45.8789,14.6153,1311,Turjak
vxm5IbHNjK,45.85,14.6942,1312,Videm-Dobrepolje
CPfCN8tiBq,45.7817,14.7747,1313,Struge
8z83DtCkTW,45.8486,14.5722,1314,Rob
gxJ6mERiZS,45.8322,14.6364,1315,Velike Lašèe
4vN3U98quI,45.782,14.6753,1316,Ortnek
Gip8pPm7cc,45.7611,14.6356,1317,Sodražica
LmkmP36cCZ,45.8236,14.6531,1318,Loški Potok
8uUg6L6M2E,45.9395,14.547,1319,Draga
RxxvD4Haev,45.6433,14.8633,1330,Koèevje
8NdiZBxvu7,45.7061,14.7544,1331,Dolenja vas
FJrtJnVFAj,45.6722,14.8397,1332,Stara Cerkev
LVHhivf301,45.4747,14.8692,1336,Vas
5OFmOf07Pw,45.5278,14.6944,1337,Osilnica
olfMstuulG,45.5764,14.7969,1338,Koèevska Reka
NcCOBiOaat,46.0333,14.4,1351,Brezovica pri Ljubljani
7JR0HyvdGO,45.9569,14.4189,1352,Preserje
QWtC7QJ22a,45.9158,14.3631,1353,Borovnica
WplBoOmF8q,46.0236,14.2992,1354,Horjul
juLB7H5tOc,46.0669,14.3161,1355,Polhov Gradec
o1QLulMBSK,46.055,14.4172,1356,Dobrova
mfArSqtRv1,45.9875,14.3989,1357,Notranje Gorice
HWB2gFbgam,46.0167,14.3667,1358,Log pri Brezovici
BrnfsJ8dGr,45.6922,14.5028,1360,Vrhnika
SfmRdLshh3,45.9144,14.2258,1370,Logatec
eCRmcbkNCd,45.9144,14.2258,1371,Logatec
DYCUHGNJ0L,45.9303,14.1422,1372,Hotedršica
bHQuwpszYE,45.9853,14.1775,1373,Rovte
jpGlpSAiTm,45.7931,14.3625,1380,Cerknica
S1uwq8NNHM,45.8133,14.3111,1381,Rakek
wMLELas4zr,45.8181,14.3822,1382,Begunje pri Cerknici
vwM6DsTqsC,45.7692,14.4222,1384,Grahovo
IxNFFmEXUZ,45.7717,14.5058,1385,Nova vas
bGJMHBRHpJ,45.7148,14.471,1386,Stari trg pri Ložu
8W8CYGatOq,46.1318,14.9969,1410,Zagorje ob Savi
pMGpGn5pmM,46.15,14.95,1411,Izlake
RUV5yf49nB,46.1391,14.9629,1412,Kisovec
lL0d5z5l29,46.1792,14.9444,1413,Èemšenik
jZ31iqfGv1,46.0714,15.0286,1414,Podkum
xNCegumAap,46.155,15.0533,1420,Trbovlje
6prH3U8uqo,46.1131,15.0572,1423,Dobovec
ADkWKzv0bK,46.1461,15.0814,1430,Hrastnik
MSvguOSzOR,46.1419,15.1128,1431,Dol pri Hrastniku
YARKmjvMGJ,46.0882,15.1728,1432,Zidani Most
HtAqZuzgnk,46.0681,15.1839,1433,Radeèe
onDyVca0B9,46.0575,15.2072,1434,Loka pri Zidanem Mostu
yugGfWoFot,46.5547,15.6467,2000,Maribor - dostava
brDjvBu9zJ,46.5547,15.6467,2001,Maribor - poštni predali
CReA8hbCuF,46.6392,15.6156,2201,Zgornja Kungota
kbBsxf5ARW,46.5058,15.6972,2204,Miklavž na Dravskem polju
nGWKRNbgQj,46.4658,15.7672,2205,Starše
3UJIUD3y02,46.4525,15.7369,2206,Marjeta na Dravskem polju
yFeZkOkdSH,46.5026,15.573,2208,Pohorje
OX7HJzwtsQ,46.6069,15.6767,2211,Pesnica pri Mariboru
kXlKsHH6vt,46.6792,15.6532,2212,Šentilj v Slovenskih goricah
iF7iamu0CK,46.6753,15.7692,2213,Zgornja Velka
m2lSJP0Wf6,46.7075,15.8011,2214,Sladki Vrh
vxqMuGUmBV,46.6992,15.6692,2215,Ceršak
fnImCqwi5p,46.5803,15.7438,2221,Jarenina
EkJjgXc2uR,46.5803,15.7438,2222,Jakobski Dol
WlrutajHbV,46.6064,15.7847,2223,Jurovski Dol
HLTaCF7Ssb,46.5542,15.7028,2229,Maleènik
klG8mUrgZV,46.5761,15.8314,2230,Lenart v Slovenskih goricah
ZF7uFhUcNL,46.58,15.7278,2231,Pernica
5UfwTr5XAY,46.5838,15.8478,2232,Volièina
v7tUKFzvrU,46.5838,15.8478,2233,Sv. Ana v Slovenskih goricah
v96MHcnuwZ,46.6086,15.8883,2234,Benedikt
7lXQonCbjL,46.5838,15.8478,2235,Sv. Trojica v Slovenskih goricah
RFuLwL4dqT,46.5706,15.9436,2236,Cerkvenjak
XLtcYYiBkG,46.5031,15.7453,2241,Spodnji Duplek
1MzuCadFz9,46.524,15.7723,2242,Zgornja Korena
hbGDzm21jY,46.4201,15.8702,2250,Ptuj
ZqpksjcdL6,46.4367,15.9536,2252,Dornava
SIuU8CE0Gy,46.5006,15.875,2253,Destrnik
ekgnZ7Co85,46.5202,15.8866,2254,Trnovska vas
q6cKSgrxJR,46.5275,15.9394,2255,Vitomarci
1KEjzMx0UW,46.4847,15.9714,2256,Juršinci
pu1NjyuUEE,46.4746,16.0031,2257,Polenšak
HUJGexrrCa,46.4842,16.0836,2258,Sveti Tomaž
CGWPpqQir9,46.4622,16.1458,2259,Ivanjkovci
UYNZrZ5ijy,46.4114,16.1544,2270,Ormož
6rivElrRiu,46.4147,16.0139,2272,Gorišnica
oOHGAqkU8g,46.4292,16.0636,2273,Podgorci
VcAJdu4xxQ,46.4178,16.1097,2274,Velika Nedelja
LIlzMe1lC8,46.46,16.2136,2275,Miklavž pri Ormožu
spGm7DWso6,46.4717,16.2508,2276,Kog
vGqRMpeAVc,46.3942,16.2681,2277,Središèe ob Dravi
uvgtkQvgpe,46.3833,15.95,2281,Markovci
kCX816gFIa,46.3441,15.9947,2282,Cirkulane
TfFAxULCZq,46.3917,16.0497,2283,Zavrè
iPpFJiCgCP,46.3686,15.9064,2284,Videm pri Ptuju
kXd1vaI4oi,46.3303,15.9369,2285,Zgornji Leskovec
ya5lpQFfpH,46.3353,15.88,2286,Podlehnik
auRfzBwAjW,46.275,15.7939,2287,Žetale
26JBdLbjTL,46.4089,15.8469,2288,Hajdina
Qy1HmynJL8,46.29,15.7167,2289,Stoperce
3mlzKi6qPz,46.3928,15.5744,2310,Slovenska Bistrica
1u9ca2tgxt,46.4918,15.6231,2311,Hoèe
hwzZFps1DI,46.4701,15.6686,2312,Orehova vas
GWmUAh2Bmg,46.4506,15.6322,2313,Fram
CCVp4Sh2mj,46.4256,15.6122,2314,Zgornja Polskava
zOJQvPApTa,46.4442,15.5394,2315,Šmartno na Pohorju
jxCiFlFK3A,46.3833,15.5167,2316,Zgornja Ložnica
yaCeYrYLpp,46.3878,15.4467,2317,Oplotnica
CWQ8AgjMpV,46.3467,15.5947,2318,Laporje
sly9bhBGXY,46.3119,15.5792,2319,Poljèane
BMEygTvGew,46.3172,15.6672,2321,Makole
GnUDPOGh9H,46.3517,15.7336,2322,Majšperk
vlWY6j72Q1,46.355,15.76,2323,Ptujska Gora
lxJELYQhML,46.3736,15.7792,2324,Lovrenc na Dravskem polju
xNPzYb6JyF,46.4036,15.7911,2325,Kidrièevo
ZCSW4zzDlF,46.3999,15.7312,2326,Cirkovce
au4OjsOnYZ,46.4519,15.6814,2327,Raèe
IpFsOiR2MD,46.3967,15.66,2331,Pragersko
yX7269c0Wg,46.5536,15.5836,2341,Limbuš
ViAEwsGzE6,46.5394,15.5158,2342,Ruše
C9N4OUDzoc,46.5439,15.4472,2343,Fala
8uFIKLsEEg,46.5406,15.3931,2344,Lovrenc na Pohorju
8JEEfcX3Gl,46.5572,15.5144,2345,Bistrica ob Dravi
dmaNAXneux,46.5744,15.6142,2351,Kamnica
DEgrHjVmRG,46.55,15.495,2352,Selnica ob Dravi
L4Wie0qe0V,46.5647,15.5614,2353,Sv. Duh na Ostrem Vrhu
g7O1K4nCZ6,46.5697,15.575,2354,Bresternica
7iB9HYJMQB,46.6142,15.2264,2360,Radlje ob Dravi
NOqieszlAY,46.5869,15.3989,2361,Ožbalt
RmztqxbBzU,46.2483,15.0094,2362,Kapla
JRTPEhrGsp,46.5869,15.3306,2363,Podvelka
xoPjT9zSYo,46.535,15.2728,2364,Ribnica na Pohorju
hYFQ9X4ZoA,46.5947,15.2375,2365,Vuhred
51P5OTDAFf,46.6114,15.1661,2366,Muta
jzN3ZVO9Ep,46.5964,15.1672,2367,Vuzenica
xIBSoUrzAN,46.5881,15.0192,2370,Dravograd
JMq4M1JgAf,46.6028,15.1075,2371,Trbonje
izGu7oHpJZ,46.62,14.9497,2372,Libelièe
8l06glUSBb,46.5611,15.0389,2373,Šentjanž pri Dravogradu
kcscJ9zv3l,46.5103,15.0806,2380,Slovenj Gradec
1a6MmUx964,46.4719,15.0836,2381,Podgorje pri Slovenj Gradcu
344sKhG4qb,46.4411,15.1956,2382,Mislinja
URH3gZNLBm,46.4894,15.1067,2383,Šmartno pri Slovenj Gradcu
VFpw47a6Gl,46.5431,14.9692,2390,Ravne na Koroškem
8dhEjCJlLY,46.5469,14.9208,2391,Prevalje
DE2w0KzFHj,46.5214,14.8544,2392,Mežica
LnzWZSKyUD,46.4705,14.8501,2393,Èrna na Koroškem
2QkhEbnS86,46.5214,14.9869,2394,Kotlje
YYGZNP5hyV,45.5916,14.1546,3000,Celje - dostava
qpUi9sZ5gx,45.5916,14.1546,3001,Celje - poštni predali
5a7JHpLnwd,46.2945,15.2431,3201,Šmartno v Rožni dolini
xHDQKqbEMu,46.2417,15.3208,3202,Ljubeèna
ceBGXqdjZk,46.3128,15.2856,3203,Nova Cerkev
AypTLiDWu3,46.3375,15.2264,3204,Dobrna
8mwbBwzNUR,46.3817,15.2958,3205,Vitanje
iAhMZEumwr,46.3636,15.3653,3206,Stranice
0M3boHuJks,46.3367,15.4258,3210,Slovenske Konjice
WcfcGuZYq1,46.2679,15.2912,3211,Škofja vas
9GaJzAmQGr,46.2933,15.3033,3212,Vojnik
jOynjOz5jI,46.3306,15.3144,3213,Frankolovo
tCSs65FCos,46.3822,15.3792,3214,Zreèe
CoEYd8uaNV,46.283,15.258,3215,Loèe
FHkZxrpm26,46.2208,15.3139,3220,Štore
wGFVxGMPFV,46.2303,15.3022,3221,Teharje
GfH5unyInH,46.2736,15.3947,3222,Dramlje
s7F393ujHg,46.1575,15.5147,3223,Loka pri Žusmu
2aykTYFkYx,46.1367,15.4089,3224,Dobje pri Planini
b5QUJHess4,46.1114,15.4094,3225,Planina pri Sevnici
l16iL7Feyo,46.2172,15.3975,3230,Šentjur
noESR5Ze98,46.2117,15.4447,3231,Grobelno
zVUfu9Zzyl,46.241,15.4567,3232,Ponikva
1Nx4ru8EPF,46.1672,15.3944,3233,Kalobje
Y2nLKMoxfa,46.2272,15.5192,3240,Šmarje pri Jelšah
EjmIzVEvQL,46.2461,15.5764,3241,Podplat
PIQ5EpEjJD,46.2375,15.6397,3250,Rogaška Slatina
S0S5kwwwq0,46.2294,15.7003,3252,Rogatec
rHUyQ1jt3V,46.1967,15.5961,3253,Pristava pri Mestinju
HKrdtJW8gH,46.1569,15.5986,3254,Podèetrtek
7vBgdLYDbI,46.1079,15.5701,3255,Buèe
ZmYMcFeGNY,46.0589,15.6642,3256,Bistrica ob Sotli
3wT5OtK1Rp,46.0414,15.5906,3257,Podsreda
XwGiiRG2aN,46.075,15.5603,3260,Kozje
t0v3HtqGqA,46.1025,15.5142,3261,Lesièno
2iuJgeLy28,46.1255,15.4774,3262,Prevorje
l9zm1gVhHg,46.1872,15.4325,3263,Gorica pri Slivnici
EPE5fIsvgB,46.1862,15.4933,3264,Sveti Štefan
SJ9E75bYXH,46.1546,15.2355,3270,Laško
hes2Xyh6YQ,46.1714,15.3494,3271,Šentrupert
uHpKbpx0UG,46.1226,15.1919,3272,Rimske Toplice
bkQSYs879Q,46.0917,15.3367,3273,Jurklošter
2DyEBmyJIw,46.2417,15.19,3301,Petrovèe
M90Jcm7lPo,46.2294,15.1506,3302,Griže
EVlIm3DImt,46.2528,15.0422,3303,Gomilsko
ba9msN57x4,46.2361,15.0183,3304,Tabor
9qGCFJJrGX,46.2439,14.9514,3305,Vransko
fPFKTVRbnq,46.2515,15.1648,3310,Žalec
F0ykGZawI3,46.2654,15.0907,3311,Šempeter v Savinjski dolini
4iuDFdUjAF,46.2369,15.0925,3312,Prebold
m61iMPXaFc,46.2833,15.0667,3313,Polzela
31lOn7Z6k3,46.2897,15.0389,3314,Braslovèe
yfRJMF27zP,46.3712,15.0345,3320,Velenje - dostava
Hk6elU5hCa,46.3712,15.0345,3322,Velenje - poštni predali
wHfHrsPRRD,46.38,15.0486,3325,Šoštanj
XcRNl2gg5H,46.4003,15.0216,3326,Topolšica
h86z8IqkTV,46.3333,15.0333,3327,Šmartno ob Paki
UNea6ILY2M,46.3394,14.9633,3330,Mozirje
0o4kRyWIns,46.3176,14.9467,3331,Nazarje
yJiqYmvbLj,46.3167,14.9167,3332,Reèica ob Savinji
Fu1dUJBj7d,46.3436,14.8338,3333,Ljubno ob Savinji
Sv5xeG8WBC,46.3561,14.7467,3334,Luèe
erSplpcVcC,46.4194,14.6936,3335,Solèava
nIoXEjmnSX,46.2839,14.8903,3341,Šmartno ob Dreti
BG284vf6bC,46.2953,14.8083,3342,Gornji Grad
5Vpm0EbaNs,46.2309,15.2604,3502,Celje
Z08nK0bYeF,46.2389,14.3556,4000,Kranj - dostava
rWmAj9yBku,46.2389,14.3556,4001,Kranj - poštni predali
Ja4jjFXBKq,46.2667,14.2833,4201,Zgornja Besnica
rF8wNHy9gd,46.2728,14.3172,4202,Naklo
4mdGZUxDVd,46.2821,14.3831,4203,Duplje
qshNXodxBH,46.3333,14.3333,4204,Golnik
KexSnxJHiu,46.3025,14.4231,4205,Preddvor
c0DyY5reh8,46.3833,14.4667,4206,Zgornje Jezersko
uyAl1BPgPB,46.2542,14.4886,4207,Cerklje na Gorenjskem
UNf8HJI4vq,46.2456,14.4197,4208,Šenèur
ITi50QjuGn,46.1986,14.3331,4209,Žabnica
2VEAIsf0rI,46.2264,14.4064,4210,Brnik aerodrom
VkvCbYGfGY,46.1818,14.3948,4211,Mavèièe
Z01m8FCLqw,46.2711,14.4181,4212,Visoko
IiEDDqKAa4,46.1655,14.3063,4220,Škofja Loka
0pi8iDESSp,46.121,14.1862,4223,Poljane nad Škofjo Loko
Yj4amBEb8S,46.1667,14.15,4224,Gorenja vas
wCn0sGsmMc,46.0864,14.0436,4225,Sovodenj
vjlbPpT7fj,46.0422,14.1072,4226,Žiri
UsdcAfWQiI,46.2244,14.2056,4227,Selca
3iDBSaSEAL,46.2333,14.1667,4228,Železniki
3A6BJHyLGJ,46.2167,14.0333,4229,Sorica
rpqVbzFHZN,46.3444,14.1744,4240,Radovljica
QBv2ssYxmr,46.329,14.2323,4243,Brezje
9l4vIHarLG,46.2952,14.2557,4244,Podnart
J7BDBDGexC,46.3,14.2,4245,Kropa
16lcoOqedA,46.3167,14.2,4246,Kamna Gorica
KkCYJH65Em,46.3796,14.0694,4247,Zgornje Gorje
jXG1dP0Efy,46.3611,14.1578,4248,Lesce
fXfOKplZk1,46.3692,14.1136,4260,Bled
pgolIQnddb,46.3489,14.0639,4263,Bohinjska Bela
CZONhe7qf8,46.2722,13.9535,4264,Bohinjska Bistrica
shBH6aBLM4,46.3218,14.0141,4265,Bohinjsko jezero
VYaY8Nhhfs,46.297,13.9256,4267,Srednja vas v Bohinju
5l8ujP1xiI,46.4306,14.0669,4270,Jesenice
weEgj4eKhi,46.4,14.1,4273,Blejska Dobrava
MAoZwvTd2F,46.4047,14.14,4274,Žirovnica
6nFfipV0YY,46.3833,14.2167,4275,Begunje na Gorenjskem
0yIG3aaj81,46.445,14.0178,4276,Hrušica
RWXjFXwfxN,46.4839,13.7894,4280,Kranjska Gora
rF3Hy9MNEH,46.4611,13.9369,4281,Mojstrana
bPjbu1DiSH,46.4833,13.8333,4282,Gozd Martuljek
YtjqCdr3Cn,46.4761,13.8532,4283,Rateèe-Planica
M2Ej8lQBWG,46.3636,14.3105,4290,Tržiè
5dyivfHx44,46.3428,14.3014,4294,Križe
MpaUjIVFYu,46.2389,14.3556,4600,Kranj
IX7GAL0gUN,45.958,13.6469,5000,Nova Gorica - dostava
oJ8MmLnvsC,45.9431,13.6393,5001,Nova Gorica - poštni predali
t7RFjg5XK1,46.0531,13.6138,5210,Deskle
KwBWHQPX9C,46.0092,13.5797,5211,Kojsko
1jll8R5uCE,45.9964,13.5264,5212,Dobrovo v Brdih
dQIMLoBUW4,46.0886,13.6397,5213,Kanal
T5npLTsDd3,46.0833,13.7403,5214,Kal nad Kanalom
48ATPC5CcB,46.1128,13.67,5215,Roèinj
KwEkVOOgNS,46.1469,13.7389,5216,Most na Soèi
EUMMenW3FN,46.183,13.7332,5220,Tolmin
yvdrqnwd22,46.2481,13.5772,5222,Kobarid
BtTcEj6paJ,46.2647,13.4278,5223,Breginj
A386uQmasR,46.2917,13.4988,5224,Srpenica
D6pIXfecYJ,46.3375,13.5528,5230,Bovec
hFwDJXFnBM,46.4019,13.5969,5231,Log pod Mangartom
b5ZiFvkLHE,46.3433,13.6564,5232,Soèa
AwpxmwpycW,46.1539,13.8619,5242,Grahovo ob Baèi
hvF533iCUI,46.21,13.9644,5243,Podbrdo
jLGv87d9Mh,45.9714,13.6494,5250,Solkan
Pdg4Mn2Aj8,45.9986,13.6739,5251,Grgar
rz71FvFhWM,45.9742,13.7433,5252,Trnovo pri Gorici
ZQT9pwCiFN,46.0494,13.7969,5253,Èepovan
0T632KVBYM,45.9303,13.7436,5261,Šempas
i34vst4p5a,45.9106,13.7767,5262,Èrnièe
QLyA4bTxoD,45.8839,13.8453,5263,Dobravlje
Ywfrkmm4Nh,45.886,13.9095,5270,Ajdovšèina
wLh5ysT2gX,45.8467,13.9631,5271,Vipava
pAJEufNqqg,45.7969,13.9714,5272,Podnanos
PjmeYZ3bD8,45.8758,14.005,5273,Col
C31YwiX7BA,45.8726,13.9885,5274,Èrni Vrh nad Idrijo
zBzatmuQcj,45.9578,14.0936,5275,Godoviè
HGnDp6suws,46.0028,14.0306,5280,Idrija
w1aikiknSo,46.0319,14.0272,5281,Spodnja Idrija
oo1O7QYGOg,46.1256,13.9817,5282,Cerkno
J7QCCNfn0m,46.1233,13.8047,5283,Slap ob Idrijci
9pyHQYCvZR,45.9275,13.6411,5290,Šempeter pri Gorici
s2OIVfMtWd,45.8956,13.6075,5291,Miren
UCClJXRbFa,45.89,13.6686,5292,Renèe
wSCRHlCdOo,45.9069,13.6775,5293,Volèja Draga
gd9YEA6jTq,45.8897,13.7369,5294,Dornberk
9ryNJA9E4w,45.8572,13.7842,5295,Branik
xFyQwv1thF,45.845,13.6417,5296,Kostanjevica na Krasu
4KdByRxBHB,45.89,13.7181,5297,Prvaèina
ioYln0yDYR,45.956,13.6484,5600,Nova Gorica
Ra4I0rBkKf,45.5538,13.7439,6000,Koper/Capodistria - dostava
ri8Sc4nVIY,45.5472,13.7258,6001,Koper/Capodistria - poštni predali
1WtKNVHGEU,45.7092,13.8733,6210,Sežana
mEr64GCIYx,45.6847,13.9703,6215,Divaèa
RZomszUPzJ,45.5292,13.9528,6216,Podgorje
lCP6veZzcf,45.6571,14.0301,6217,Vremski Britof
62jPuXGz2G,45.6611,13.9281,6219,Lokev
veP84tS6bC,45.7581,13.8322,6221,Dutovlje
ESDDmN3XVf,45.8233,13.8436,6222,Štanjel
5ex4qDWJd0,45.8153,13.7483,6223,Komen
8piBABf01T,45.7211,14.0411,6224,Senožeèe
pv7iMCpt4q,45.7606,14.1064,6225,Hruševje
I8qpbn1QVq,45.7769,14.2167,6230,Postojna
m66KVwtaCh,45.8339,14.2561,6232,Planina
tAGq2eM84A,45.61,13.9356,6240,Kozina
aAfBwsOnR1,45.5814,13.9967,6242,Materija
Tza2DIhYec,45.5425,14.0869,6243,Obrov
ES9gtrcUKP,45.5217,14.1461,6244,Podgrad
vU0T9PYHiP,45.5697,14.2408,6250,Ilirska Bistrica
HArZYfuAaN,45.6192,14.2205,6251,Ilirska Bistrica-Trnovo
Zj6rZxJp9a,45.6245,14.2448,6253,Knežak
3No5jxiRQ6,45.5028,14.2717,6254,Jelšane
2dlr2UCAtY,45.6048,14.1834,6255,Prem
zwSDwdJxq3,45.6192,14.2205,6256,Košana
qvqdgBi4AL,45.6829,14.1959,6257,Pivka
siBqqdwW11,45.7303,14.1862,6258,Prestranek
GiY0YTyptD,45.5497,13.8136,6271,Dekani
JiO6TKtdjX,45.505,13.8769,6272,Graèišèe
22XC3nJfHk,45.5097,13.8031,6273,Marezige
5mw6sRB69O,45.5014,13.7178,6274,Šmarje
nhCGNAM4xd,45.55,13.88,6275,Èrni Kal
Um5JSnfM8j,45.5394,13.7961,6276,Pobegi
xWdKeB8ZwB,45.5664,13.7994,6280,Ankaran/Ancarano
vscjLnYBul,45.5664,13.7994,6281,Škofije
1c2Om9rsbR,45.4955,13.6077,6310,Izola/Isola
mvyy12lR6U,45.5143,13.5921,6320,Portorož/Portorose
ydrBCfMcx1,45.5143,13.5921,6323,Strunjan/Strugnano (sezonska pošta)
bPTjNJwtvn,45.4767,13.6233,6330,Piran/Pirano
PBA0rj9gUP,45.4767,13.6233,6333,Seèovlje/Sicciole
0HfyAD7Lkg,45.8363,15.1899,8000,Novo mesto - dostava
TVpVwN2evS,45.8296,15.1997,8001,Novo mesto - poštni predali
1m4ryPN0kT,45.9042,15.0217,8210,Trebnje
J4b8lFBpp9,45.875,14.98,8211,Dobrniè
vmZcLFMPvC,45.9289,14.9678,8212,Velika Loka
tYVhYVld5u,45.9338,14.9071,8213,Veliki Gaber
LQpCekf3MM,45.8603,15.0833,8216,Mirna Peè
y31BOcnSv7,45.8624,15.2219,8220,Šmarješke Toplice
6uiFG02VBt,45.8675,15.2733,8222,Otoèec
iTJMEVnnJI,45.9342,15.1408,8230,Mokronog
wP6gAkRprl,45.9167,15.15,8231,Trebelno
rv1BW3PCoz,45.9778,15.0956,8232,Šentrupert
pk1PDFyN4n,45.9553,15.0619,8233,Mirna
8QofPcNsc4,45.9033,15.5911,8250,Brežice
lK6iCR8hqJ,45.8894,15.6025,8251,Èatež ob Savi
ft8BwFjp1g,45.9539,15.5878,8253,Artièe
AZJFerDOfF,45.955,15.6286,8254,Globoko
5Ki122pVl2,46.0017,15.6411,8255,Pišece
ghjiKtgAHm,45.9833,15.6,8256,Sromlje
B2PXF2f36D,45.8972,15.6637,8257,Dobova
ZxfffkYWdO,45.9333,15.6833,8258,Kapele
eClCeAY5zP,46.0133,15.6967,8259,Bizeljsko
hbqZHp91jO,45.8917,15.5397,8261,Jesenice na Dolenjskem
bnFoGTzROu,45.9,15.5667,8262,Krška vas
76O5KzlpM1,45.8834,15.5128,8263,Cerklje ob Krki
cnFgtdGk8A,45.9591,15.4917,8270,Krško
KEIsJerQoC,45.9772,15.5458,8272,Zdole
Hp4k3A12gs,45.9357,15.4718,8273,Leskovec pri Krškem
Dh97Ar0sUU,45.9297,15.3842,8274,Raka
6aAgnQiPo6,45.9067,15.2914,8275,Škocjan
zfzfqY80q1,45.9333,15.3167,8276,Buèka
qc3EZK3wVa,45.9953,15.4775,8280,Brestanica
8ORmlIzdeR,46.0236,15.4769,8281,Senovo
fzCig3d61Q,46.0353,15.5403,8282,Koprivnica
HsdRksZZhm,45.9833,15.4,8283,Blanca
SntduigESY,46.0078,15.3156,8290,Sevnica
TjCurKxAGv,46.055,15.3675,8292,Zabukovje
3u2n4TnycD,45.9667,15.35,8293,Studenec
294MzQskN1,46.0144,15.2825,8294,Boštanj
oxlkwafEoB,45.9589,15.1972,8295,Tržišèe
3P3b363GAa,45.9847,15.1894,8296,Krmelj
0WCZ2u97uY,46.0114,15.1672,8297,Šentjanž
tumV7hP2Qp,45.84,15.3361,8310,Šentjernej
3yXFyZ8ezJ,45.8461,15.4222,8311,Kostanjevica na Krki
3e4ggzCa0J,45.8667,15.4667,8312,Podboèje
nvBtgcyx6v,45.7514,15.1715,8321,Brusnice
hTuk2AQsAS,45.7694,15.2097,8322,Stopièe
o9dfGLKD2X,45.7333,15.1333,8323,Uršna sela
bFALFnE0zj,45.6472,15.3142,8330,Metlika
ONeoXuOOuQ,45.5296,14.8708,8331,Suhor
66Kv82w5sN,45.6167,15.25,8332,Gradac
dYspUOwn8C,45.6461,15.1822,8333,Semiè
F3cZ5ApL1D,45.5711,15.1889,8340,Èrnomelj
GgflAn6eqW,45.5222,15.3065,8341,Adlešièi
b6tKf8Xw38,45.4936,15.0772,8342,Stari trg ob Kolpi
6NJN3oWCZe,45.5208,15.1756,8343,Dragatuš
2RrGeLmF7p,45.4601,15.254,8344,Vinica
XECOyQNaVb,45.7566,15.0592,8350,Dolenjske Toplice
v0EwzbPq9s,45.78,15.0728,8351,Straža
oJX3RR54Xe,45.8339,14.9292,8360,Žužemberk
MCudPjLxhQ,45.8139,14.9711,8361,Dvor
F2mMFZLVaL,45.7656,14.8822,8362,Hinje
t1GdeIvnxQ,45.804,15.1689,8600,Novo mesto
uhK8gxzmUw,46.6586,16.162,9000,Murska Sobota - dostava
5UlHSMIiVB,46.6612,16.1651,9001,Murska Sobota - poštni predali
Ssmuve01nf,46.7067,16.1564,9201,Puconci
0BSxx8xO97,46.7814,16.1689,9202,Maèkovci
vKMinsen9O,46.8053,16.2225,9203,Petrovci
bTd8zpcRFQ,46.825,16.2981,9204,Šalovci
ak0GIAIWnR,46.7688,16.2396,9205,Hodoš/Hodos
380WTJ8yu9,46.7889,16.2469,9206,Križevci
XOOBtidnv0,46.7408,16.3175,9207,Prosenjakovci/Partosfalva
6CKKMdvUpA,46.7333,16.2667,9208,Fokovci
GX6JIebbLk,46.655,16.2946,9220,Lendava/Lendva
5zxYbyYfO4,46.6864,16.1978,9221,Martjanci
NAuqsyh9H6,46.6761,16.2839,9222,Bogojina
uGXlwpNB2V,46.655,16.2946,9223,Dobrovnik/Dobronak
5ZN5xGdyZK,46.6278,16.3203,9224,Turnišèe
4qQr7pdyMp,46.5719,16.3469,9225,Velika Polana
wh2p23dVlW,46.6831,16.2208,9226,Moravske Toplice
LhdWluUXVC,46.6847,16.3978,9227,Kobilje
YDqN6FvE9W,46.6053,16.2406,9231,Beltinci
6CHseH1rhG,46.5744,16.2906,9232,Èrenšovci
75QyUzvKGT,46.5867,16.2803,9233,Odranci
0Dzfb5TStm,46.5208,16.1975,9240,Ljutomer
1DbKbkMYz7,46.5836,16.1653,9241,Veržej
BMNubx68Pt,46.5683,16.1386,9242,Križevci pri Ljutomeru
ZWMunigxlb,46.5289,16.0558,9243,Mala Nedelja
FJq5yt0HUu,46.5594,16.1077,9244,Sv. Jurij ob Šèavnici
qu7zDrDe55,46.5956,15.9814,9245,Spodnji Ivanjci
uAcw0Y1ls0,46.6733,15.9922,9250,Gornja Radgona
i8YprARnOm,46.6836,16.0525,9251,Tišina
4C15zUhuss,46.642,16.0378,9252,Radenci
tUykOTKexz,46.6972,15.9106,9253,Apaèe
cMNbTTn1Vr,46.7208,16.0225,9261,Cankova
PnSJn99ltw,46.8,16.0333,9262,Rogašovci
KsLcz47cE5,46.8369,16.0833,9263,Kuzma
fO5B1TtbSk,46.8,16.1,9264,Grad
Bf4tsOSbnT,46.7442,16.0922,9265,Bodonci
hhsQBrrroq,46.6625,16.1664,9501,Murska Sobota
QKoBRZNKqU,46.642,16.0378,9502,Radenci
yhidkbv4GE,46.6625,16.1664,9600,Murska Sobota
